[{"OBJECT_NAME":"STARLINK-36957","OBJECT_ID":"2026-039D","EPOCH":"2026-03-09T22:00:01.999584","MEAN_MOTION":15.82934137,"ECCENTRICITY":0.00016393,"INCLINATION":42.9988,"RA_OF_ASC_NODE":53.5138,"ARG_OF_PERICENTER":259.2068,"MEAN_ANOMALY":12.6371,"EPHEMERIS_TYPE":0,"CLASSIFICATION_TYPE":"U","NORAD_CAT_ID":67989,"ELEMENT_SET_NO":999,"REV_AT_EPOCH":291,"BSTAR":-0.0060413945,"MEAN_MOTION_DOT":-0.01183939,"MEAN_MOTION_DDOT":0},{"OBJECT_NAME":"ELECTRON KICK STAGE R\/B","OBJECT_ID":"2025-305E","EPOCH":"2026-03-09T17:28:24.696768","MEAN_MOTION":15.78060503,"ECCENTRICITY":0.01033089,"INCLINATION":44.9756,"RA_OF_ASC_NODE":214.1215,"ARG_OF_PERICENTER":272.8546,"MEAN_ANOMALY":86.0537,"EPHEMERIS_TYPE":0,"CLASSIFICATION_TYPE":"U","NORAD_CAT_ID":67223,"ELEMENT_SET_NO":999,"REV_AT_EPOCH":1273,"BSTAR":0.0014223477,"MEAN_MOTION_DOT":0.00360525,"MEAN_MOTION_DDOT":5.0909257e-5}]
